*******************************************************************************
Ephemeris / WWW_USER Mon Jul 15 19:09:29 2024 Pasadena, USA      / Horizons    
*******************************************************************************
Target body name: (2018 RY7)                      {source: JPL#20}
Center body name: Earth (399)                     {source: DE441}
Center-site name: Gemini South Obs., Cerro Pachon
*******************************************************************************
Start time      : A.D. 2019-Jan-25 23:54:00.0000 UT      
Stop  time      : A.D. 2019-Jan-26 09:56:00.0000 UT      
Step-size       : 1 minutes
*******************************************************************************
Target pole/equ : undefined
Target radii    : undefined                                                    
Center geodetic : 289.2634, -30.2406227, 2.71233  {E-lon(deg),Lat(deg),Alt(km)}
Center cylindric: 289.2634,5517.21435,-3194.81213 {E-lon(deg),Dxy(km),Dz(km)}
Center pole/equ : ITRF93                          {East-longitude positive}
Center radii    : 6378.137, 6378.137, 6356.752 km {Equator_a, b, pole_c}       
Target primary  : Sun
Vis. interferer : MOON (R_eq= 1737.400) km        {source: DE441}
Rel. light bend : Sun                             {source: DE441}
Rel. lght bnd GM: 1.3271E+11 km^3/s^2                                          
Small-body perts: Yes                             {source: SB441-N16}
Atmos refraction: NO (AIRLESS)
RA format       : HMS
Time format     : CAL 
Calendar mode   : Mixed Julian/Gregorian
RTS-only print  : NO       
EOP file        : eop.240715.p241008                                           
EOP coverage    : DATA-BASED 1962-JAN-20 TO 2024-JUL-15. PREDICTS-> 2024-OCT-07
Units conversion: 1 au= 149597870.700 km, c= 299792.458 km/s, 1 day= 86400.0 s 
Table cut-offs 1: Elevation (-90.0deg=NO ),Airmass (>38.000=NO), Daylight (YES)
Table cut-offs 2: Solar elongation (  0.0,180.0=NO ),Local Hour Angle( 0.0=NO )
Table cut-offs 3: RA/DEC angular rate (     0.0=NO )                           
*******************************************************************************
Initial IAU76/J2000 heliocentric ecliptic osculating elements (au, days, deg.):
  EPOCH=  2458422.5 ! 2018-Oct-31.00 (TDB)         Residual RMS= .22459        
   EC= .1470549687381346   QR= .8667733479166969   TP= 2458516.8896767548      
   OM= 2.838668085760325   W=  136.9006026425241   IN= 13.35135890147074       
  Equivalent ICRF heliocentric cartesian coordinates (au, au/d):
   X= 8.791791513870114E-01  Y= 4.508422091141234E-01  Z= 3.244113040133835E-01
  VX=-1.085418916943652E-02 VY= 1.006005810562689E-02 VZ= 7.673980932675997E-03
Asteroid physical parameters (km, seconds, rotational period in hours):        
   GM= n.a.                RAD= n.a.               ROTPER= n.a.                
   H= 24.4                 G= .150                 B-V= n.a.                   
                           ALBEDO= n.a.            STYP= n.a.                  
*******************************************************************************
 Date__(UT)__HR:MN     R.A._________(ICRF)_________DEC
******************************************************
$$SOE
 2019-Jan-26 08:06  m  18 14 08.878126 +21 49 32.09032
 2019-Jan-26 08:07  m  18 14 08.851164 +21 49 29.63951
 2019-Jan-26 08:08  m  18 14 08.824158 +21 49 27.18870
 2019-Jan-26 08:09  m  18 14 08.797108 +21 49 24.73787
 2019-Jan-26 08:10  m  18 14 08.770014 +21 49 22.28703
 2019-Jan-26 08:11  m  18 14 08.742877 +21 49 19.83618
 2019-Jan-26 08:12  m  18 14 08.715696 +21 49 17.38531
 2019-Jan-26 08:13  m  18 14 08.688470 +21 49 14.93443
 2019-Jan-26 08:14  m  18 14 08.661201 +21 49 12.48353
 2019-Jan-26 08:15  m  18 14 08.633889 +21 49 10.03262
 2019-Jan-26 08:16  m  18 14 08.606532 +21 49 07.58168
 2019-Jan-26 08:17  m  18 14 08.579131 +21 49 05.13073
 2019-Jan-26 08:18  m  18 14 08.551687 +21 49 02.67975
 2019-Jan-26 08:19  m  18 14 08.524198 +21 49 00.22875
 2019-Jan-26 08:20  m  18 14 08.496665 +21 48 57.77773
 2019-Jan-26 08:21  m  18 14 08.469089 +21 48 55.32669
 2019-Jan-26 08:22  m  18 14 08.441468 +21 48 52.87562
 2019-Jan-26 08:23  m  18 14 08.413804 +21 48 50.42452
 2019-Jan-26 08:24  m  18 14 08.386095 +21 48 47.97340
 2019-Jan-26 08:25  m  18 14 08.358342 +21 48 45.52224
 2019-Jan-26 08:26  m  18 14 08.330546 +21 48 43.07106
 2019-Jan-26 08:27  m  18 14 08.302705 +21 48 40.61985
 2019-Jan-26 08:28  m  18 14 08.274820 +21 48 38.16861
 2019-Jan-26 08:29  m  18 14 08.246891 +21 48 35.71733
 2019-Jan-26 08:30  m  18 14 08.218918 +21 48 33.26602
 2019-Jan-26 08:31  m  18 14 08.190901 +21 48 30.81468
 2019-Jan-26 08:32  m  18 14 08.162840 +21 48 28.36330
 2019-Jan-26 08:33  m  18 14 08.134734 +21 48 25.91188
 2019-Jan-26 08:34  m  18 14 08.106585 +21 48 23.46043
 2019-Jan-26 08:35 Am  18 14 08.078391 +21 48 21.00894
 2019-Jan-26 08:36 Am  18 14 08.050154 +21 48 18.55740
 2019-Jan-26 08:37 Am  18 14 08.021872 +21 48 16.10583
 2019-Jan-26 08:38 Am  18 14 07.993546 +21 48 13.65421
 2019-Jan-26 08:39 Am  18 14 07.965176 +21 48 11.20255
 2019-Jan-26 08:40 Am  18 14 07.936762 +21 48 08.75085
 2019-Jan-26 08:41 Am  18 14 07.908304 +21 48 06.29910
 2019-Jan-26 08:42 Am  18 14 07.879802 +21 48 03.84730
 2019-Jan-26 08:43 Am  18 14 07.851255 +21 48 01.39546
 2019-Jan-26 08:44 Am  18 14 07.822665 +21 47 58.94357
 2019-Jan-26 08:45 Am  18 14 07.794030 +21 47 56.49163
 2019-Jan-26 08:46 Am  18 14 07.765352 +21 47 54.03964
 2019-Jan-26 08:47 Am  18 14 07.736629 +21 47 51.58760
 2019-Jan-26 08:48 Am  18 14 07.707862 +21 47 49.13550
 2019-Jan-26 08:49 Am  18 14 07.679052 +21 47 46.68335
 2019-Jan-26 08:50 Am  18 14 07.650197 +21 47 44.23115
 2019-Jan-26 08:51 Am  18 14 07.621298 +21 47 41.77889
 2019-Jan-26 08:52 Am  18 14 07.592355 +21 47 39.32657
 2019-Jan-26 08:53 Am  18 14 07.563369 +21 47 36.87420
 2019-Jan-26 08:54 Am  18 14 07.534338 +21 47 34.42177
 2019-Jan-26 08:55 Am  18 14 07.505263 +21 47 31.96927
 2019-Jan-26 08:56 Am  18 14 07.476144 +21 47 29.51672
 2019-Jan-26 08:57 Am  18 14 07.446982 +21 47 27.06410
 2019-Jan-26 08:58 Am  18 14 07.417775 +21 47 24.61142
 2019-Jan-26 08:59 Am  18 14 07.388525 +21 47 22.15868
 2019-Jan-26 09:00 Am  18 14 07.359230 +21 47 19.70587
 2019-Jan-26 09:01 Am  18 14 07.329892 +21 47 17.25299
 2019-Jan-26 09:02 Am  18 14 07.300510 +21 47 14.80005
 2019-Jan-26 09:03 Am  18 14 07.271084 +21 47 12.34704
 2019-Jan-26 09:04 Am  18 14 07.241615 +21 47 09.89396
 2019-Jan-26 09:05 Am  18 14 07.212101 +21 47 07.44081
 2019-Jan-26 09:06 Am  18 14 07.182544 +21 47 04.98758
 2019-Jan-26 09:07 Am  18 14 07.152944 +21 47 02.53429
 2019-Jan-26 09:08 Nm  18 14 07.123299 +21 47 00.08092
 2019-Jan-26 09:09 Nm  18 14 07.093611 +21 46 57.62747
 2019-Jan-26 09:10 Nm  18 14 07.063879 +21 46 55.17395
 2019-Jan-26 09:11 Nm  18 14 07.034104 +21 46 52.72036
 2019-Jan-26 09:12 Nm  18 14 07.004285 +21 46 50.26668
 2019-Jan-26 09:13 Nm  18 14 06.974423 +21 46 47.81293
 2019-Jan-26 09:14 Nm  18 14 06.944517 +21 46 45.35909
 2019-Jan-26 09:15 Nm  18 14 06.914567 +21 46 42.90518
 2019-Jan-26 09:16 Nm  18 14 06.884575 +21 46 40.45118
 2019-Jan-26 09:17 Nm  18 14 06.854539 +21 46 37.99710
 2019-Jan-26 09:18 Nm  18 14 06.824459 +21 46 35.54294
 2019-Jan-26 09:19 Nr  18 14 06.794336 +21 46 33.08869
 2019-Jan-26 09:20 Nm  18 14 06.764170 +21 46 30.63435
 2019-Jan-26 09:21 Nm  18 14 06.733961 +21 46 28.17993
 2019-Jan-26 09:22 Nm  18 14 06.703708 +21 46 25.72542
 2019-Jan-26 09:23 Nm  18 14 06.673412 +21 46 23.27082
 2019-Jan-26 09:24 Nm  18 14 06.643073 +21 46 20.81613
 2019-Jan-26 09:25 Nm  18 14 06.612691 +21 46 18.36135
 2019-Jan-26 09:26 Nm  18 14 06.582266 +21 46 15.90647
 2019-Jan-26 09:27 Nm  18 14 06.551798 +21 46 13.45150
 2019-Jan-26 09:28 Nm  18 14 06.521287 +21 46 10.99644
 2019-Jan-26 09:29 Nm  18 14 06.490734 +21 46 08.54128
 2019-Jan-26 09:30 Nm  18 14 06.460137 +21 46 06.08603
 2019-Jan-26 09:31 Nm  18 14 06.429497 +21 46 03.63068
 2019-Jan-26 09:32 Nm  18 14 06.398815 +21 46 01.17523
 2019-Jan-26 09:33 Nm  18 14 06.368090 +21 45 58.71968
 2019-Jan-26 09:34 Nm  18 14 06.337322 +21 45 56.26403
 2019-Jan-26 09:35 Nm  18 14 06.306512 +21 45 53.80827
 2019-Jan-26 09:36 Nm  18 14 06.275659 +21 45 51.35242
 2019-Jan-26 09:37 Nm  18 14 06.244764 +21 45 48.89646
 2019-Jan-26 09:38 Nm  18 14 06.213826 +21 45 46.44040
 2019-Jan-26 09:39 Nm  18 14 06.182846 +21 45 43.98423
 2019-Jan-26 09:40 Cm  18 14 06.151824 +21 45 41.52795
 2019-Jan-26 09:41 Cm  18 14 06.120759 +21 45 39.07157
 2019-Jan-26 09:42 Cm  18 14 06.089652 +21 45 36.61508
 2019-Jan-26 09:43 Cm  18 14 06.058503 +21 45 34.15847
 2019-Jan-26 09:44 Cm  18 14 06.027311 +21 45 31.70176
 2019-Jan-26 09:45 Cm  18 14 05.996078 +21 45 29.24494
 2019-Jan-26 09:46 Cm  18 14 05.964803 +21 45 26.78800
 2019-Jan-26 09:47 Cm  18 14 05.933485 +21 45 24.33095
 2019-Jan-26 09:48 Cm  18 14 05.902126 +21 45 21.87378
 2019-Jan-26 09:49 Cm  18 14 05.870725 +21 45 19.41650
 2019-Jan-26 09:50 Cm  18 14 05.839283 +21 45 16.95910
 2019-Jan-26 09:51 Cm  18 14 05.807798 +21 45 14.50158
 2019-Jan-26 09:52 Cm  18 14 05.776272 +21 45 12.04395
 2019-Jan-26 09:53 Cm  18 14 05.744705 +21 45 09.58619
 2019-Jan-26 09:54 Cm  18 14 05.713096 +21 45 07.12832
 2019-Jan-26 09:55 Cm  18 14 05.681445 +21 45 04.67032
 2019-Jan-26 09:56 Cm  18 14 05.649754 +21 45 02.21220
